INTELSAT 902 (IS-902)   
1 26900U 01039A   26115.34323809 -.00000293  00000+0  00000+0 0  9990
2 26900   5.9853  72.4134 0004533 318.7518 255.6698  1.00271346 90169
INTELSAT 904 (IS-904)   
1 27380U 02007A   26115.20430075 -.00000235  00000+0  00000+0 0  9994
2 27380   6.7906  69.8070 0007641 337.8561 207.6189  1.00269967 51235
DIRECTV 5 (TEMPO 1)     
1 27426U 02023A   26115.48286742 -.00000068  00000+0  00000+0 0  9997
2 27426   4.7456  75.9484 0003404 319.4956 241.7793  1.00271710 87595
INTELSAT 905 (IS-905)   
1 27438U 02027A   26115.44092229  .00000084  00000+0  00000+0 0  9992
2 27438   6.6239  70.4221 0003363 336.8679 187.6985  1.00272976 50839
GALAXY 3C (G-3C)        
1 27445U 02030A   26115.48912264 -.00000164  00000+0  00000+0 0  9998
2 27445   3.5957  78.6788 0001501  26.3717 189.6714  1.00271460 45961
INTELSAT 906 (IS-906)   
1 27513U 02041A   26115.50851228  .00000003  00000+0  00000+0 0  9992
2 27513   5.6703  73.5537 0004048 334.0014  53.1973  1.00270322 86506
GALAXY 13 (HORIZONS-1)  
1 27954U 03044A   26115.47197669  .00000120  00000+0  00000+0 0  9993
2 27954   1.2831  84.4830 0002215 312.4608 196.4505  1.00272881 46048
INTELSAT 10-02          
1 28358U 04022A   26115.35277147  .00000000  00000+0  00000+0 0  9993
2 28358   0.0156  80.2396 0001259 343.5362 275.5633  1.00267758 80028
DIRECTV 8               
1 28659U 05019A   26115.47963094  .00000000  00000+0  00000+0 0  9990
2 28659   0.0153 229.4490 0003136 170.6777 226.9819  1.00270696 76549
GALAXY 28 (G-28)        
1 28702U 05022A   26115.06260020 -.00000213  00000+0  00000+0 0  9994
2 28702   3.1644  79.5622 0002967 316.4907 172.4549  1.00267440 51444
GALAXY 16 (G-16)        
1 29236U 06023A   26115.50899881 -.00000141  00000+0  00000+0 0  9991
2 29236   0.0235 231.5796 0003037 175.1196 251.0624  1.00274170 72449
DIRECTV 9S              
1 29494U 06043A   26115.48632603 -.00000125  00000+0  00000+0 0  9995
2 29494   2.2867  81.5027 0004110 328.2101 237.6624  1.00271497 50850
GALAXY 17 (G-17)        
1 31307U 07016B   26115.49216211 -.00000218  00000+0  00000+0 0  9999
2 31307   2.8408  80.5336 0004214 327.5663 257.5870  1.00271105 69271
INTELSAT 11 (IS-11)     
1 32253U 07044B   26115.35277147 -.00000189  00000+0  00000+0 0  9998
2 32253   3.4299  79.2838 0001532 222.6401  36.5200  0.99052623 67925
HORIZONS-2              
1 32388U 07063B   26115.48112551 -.00000266  00000+0  00000+0 0  9995
2 32388   2.4681  81.2426 0003367 320.0095 271.6531  1.00272781 67284
DIRECTV 11              
1 32729U 08013A   26115.48700367 -.00000140  00000+0  00000+0 0  9999
2 32729   0.0109  99.4995 0000213 254.3265 295.8045  1.00270342 45060
GALAXY 18 (G-18)        
1 32951U 08024A   26115.47822573  .00000011  00000+0  00000+0 0  9997
2 32951   0.0202 262.6846 0003154 135.7801 224.1877  1.00271484 45320
INTELSAT 25 (IS-25)     
1 33153U 08034A   26113.08239256 -.00000278  00000+0  00000+0 0  9994
2 33153   2.5670  80.9425 0002165 274.6153 207.9060  0.99965107 65143
GALAXY 19 (G-19)        
1 33376U 08045A   26115.48767220 -.00000153  00000+0  00000+0 0  9998
2 33376   0.0147 248.0558 0003227 161.1454 242.8546  1.00271967 64378
FM-5                    
1 35493U 09034A   26115.19355404 -.00000215  00000+0  00000+0 0  9993
2 35493   0.0132 266.1393 0000729   4.2340 286.3682  1.00272658 46111
INTELSAT 14 (IS-14)     
1 36097U 09064A   26115.41560523 -.00000288  00000+0  00000+0 0  9992
2 36097   0.0010  91.0193 0002440 301.8306 285.1973  1.00272541 60072
INTELSAT 15 (IS-15)     
1 36106U 09067A   26115.51267230 -.00000199  00000+0  00000+0 0  9997
2 36106   0.0141 125.3377 0002230 267.0400  90.8655  1.00271885 40704
DIRECTV 12              
1 36131U 09075A   26115.48565736 -.00000117  00000+0  00000+0 0  9992
2 36131   0.0286  90.3503 0000108 310.2948 244.9625  1.00270694 46021
INTELSAT 16 (IS-16)     
1 36397U 10006A   26115.46343368 -.00000259  00000+0  00000+0 0  9992
2 36397   0.0042  58.7271 0002019 359.0208 246.3746  1.00271738 59123
XM-5                    
1 37185U 10053A   26115.16572596 -.00000038  00000+0  00000+0 0  9999
2 37185   0.0622 271.1719 0003555 277.0771 329.4028  1.00271890 56954
INTELSAT 17 (IS-17)     
1 37238U 10065B   26115.50885897 -.00000016  00000+0  00000+0 0  9996
2 37238   0.0129 191.9831 0002781 218.5087  52.2233  1.00271264 52724
INTELSAT 28 (IS-28)     
1 37392U 11016A   26115.41820524 -.00000238  00000+0  00000+0 0  9996
2 37392   1.6715  83.2256 0004109 314.9037 294.1518  1.00271019 52753
INTELSAT 18 (IS-18)     
1 37834U 11056A   26115.48516932  .00000000  00000+0  00000+0 0  9999
2 37834   0.0189 241.0640 0001907 151.1942 175.9060  1.00271590 53283
INTELSAT 22 (IS-22)     
1 38098U 12011A   26115.51007229 -.00000072  00000+0  00000+0 0  9992
2 38098   0.0190 116.4254 0001767 281.8695  70.9592  1.00270602  6661
INTELSAT 19 (IS-19)     
1 38356U 12030A   26115.50739154 -.00000070  00000+0  00000+0 0  9996
2 38356   0.0398  70.1757 0002887 323.1583 168.8540  1.00271985 49923
INTELSAT 20 (IS-20)     
1 38740U 12043A   26115.36672485 -.00000039  00000+0  00000+0 0  9999
2 38740   0.0110 173.2380 0002135   3.1390 237.5310  1.00271272 50218
INTELSAT 21 (IS-21)     
1 38749U 12045A   26115.48433220 -.00000299  00000+0  00000+0 0  9993
2 38749   0.0556  77.5056 0001989 326.7433 285.6080  1.00271342 49994
INTELSAT 23 (IS-23)     
1 38867U 12057A   26115.48528552 -.00000299  00000+0  00000+0 0  9990
2 38867   0.0155 266.7159 0000061 175.8192 252.6405  1.00267936 49428
FM-6                    
1 39360U 13058A   26115.33198740 -.00000029  00000+0  00000+0 0  9998
2 39360   0.0105 250.7766 0000286 259.1068  66.6169  1.00265196 45541
INTELSAT 30 (IS-30)     
1 40271U 14062A   26114.39488937 -.00000165  00000+0  00000+0 0  9993
2 40271   0.0073 224.7449 0002247  46.3663 348.4158  1.00269572  6259
DIRECTV 14              
1 40333U 14078B   26115.40485747 -.00000139  00000+0  00000+0 0  9999
2 40333   0.0104  54.8027 0000596 102.7497 102.3726  1.00270418 41511
DIRECTV 15              
1 40663U 15026A   26115.40395023 -.00000116  00000+0  00000+0 0  9991
2 40663   0.0467  81.5513 0000459 122.4633  51.9454  1.00270518 39936
SKY MEXICO-1            
1 40664U 15026B   26115.48017218  .00000000  00000+0  00000+0 0  9998
2 40664   0.0203 109.2278 0002121 279.3061 279.0160  1.00269101 39928
INTELSAT 34 (IS-34)     
1 40874U 15039A   26115.30669823 -.00000300  00000+0  00000+0 0  9995
2 40874   0.0145 284.3607 0000314  32.2445 311.6334  1.00272204 39105
INTELSAT 31 (IS-31)     
1 41581U 16035A   26115.12049376 -.00000165  00000+0  00000+0 0  9992
2 41581   0.0102 233.3487 0002248  37.9364 250.1882  1.00271589 36156
INTELSAT 36 (IS-36)     
1 41747U 16053A   26115.20878034 -.00000038  00000+0  00000+0 0  9995
2 41747   0.0144 331.2817 0001681 357.9480  27.6553  1.00270344 35424
INTELSAT 32E (IS-32E)   
1 41945U 17007B   26114.84549932  .00000000  00000+0  00000+0 0  9994
2 41945   0.0152 235.0770 0000544  92.8548 146.1440  1.00268181 33694
INTELSAT 35E (IS-35E)   
1 42818U 17041A   26115.41768524  .00000000  00000+0  00000+0 0  9996
2 42818   0.0141 226.5806 0002144 164.4829 298.2506  1.00271702 32282
INTELSAT 37E (IS-37E)   
1 42950U 17059A   26115.42089192 -.00000155  00000+0  00000+0 0  9992
2 42950   0.0087 209.9312 0002089 204.9106 292.1156  1.00271661 31536
AZERSPACE 2 (IS-38)     
1 43632U 18074A   26115.07690027  .00000122  00000+0  00000+0 0  9997
2 43632   0.0184 236.9958 0001435 151.2552 257.6372  1.00271567 27919
HORIZONS-3E             
1 43633U 18074B   26115.24408093 -.00000045  00000+0  00000+0 0  9992
2 43633   0.0370  71.4068 0000861 258.9684 139.7462  1.00270571 27817
AT&T T-16               
1 44333U 19034A   26115.49975215 -.00000129  00000+0  00000+0 0  9992
2 44333   0.0405  76.9577 0000802 141.0360  74.5750  1.00270341 25108
INTELSAT 39 (IS-39)     
1 44476U 19049B   26115.50807896  .00000000  00000+0  00000+0 0  9994
2 44476   0.0177 238.8973 0000497   6.6651 212.8153  1.00269472 24601
GALAXY 30 (G-30)        
1 46114U 20056C   26115.40660031  .00000000  00000+0  00000+0 0  9992
2 46114   0.0146 234.5856 0002391 170.2911 189.9179  1.00270825 20762
GALAXY 33 (G-33)        
1 54026U 22128A   26115.47424299  .00000065  00000+0  00000+0 0  9997
2 54026   0.0222  98.5382 0001835 282.8073 229.8639  1.00270626 13217
GALAXY 34 (G-34)        
1 54027U 22128B   26115.47058721  .00000000  00000+0  00000+0 0  9990
2 54027   0.0106 220.0721 0001493 172.2470 221.5732  1.00270568 13387
GALAXY 31 (G-31)        
1 54243U 22153A   26115.47895999 -.00000001  00000+0  00000+0 0  9996
2 54243   0.0352  89.7494 0001281 296.6077 238.5549  1.00271012  6602
GALAXY 32 (G-32)        
1 54244U 22153B   26115.40641748 -.00000188  00000+0  00000+0 0  9997
2 54244   0.0041 308.3699 0002820  71.5840 248.7748  1.00271122 12617
GALAXY 35 (G-35)        
1 54741U 22170A   26115.48968453 -.00000176  00000+0  00000+0 0  9998
2 54741   0.0175 144.7995 0001963 247.3479 264.5294  1.00271711 12364
GALAXY 36 (G-36)        
1 54742U 22170B   26115.49103272 -.00000199  00000+0  00000+0 0  9995
2 54742   0.0109 203.8587 0002660 219.6125 237.8069  1.00271595 12241
GALAXY 37 (G-37)        
1 57493U 23112A   26115.47627058  .00000000  00000+0  00000+0 0  9999
2 57493   0.0150 242.0337 0002126 148.2635 227.6582  1.00269832 10012
